STARLINK-36783
1 67873U 26034Z   26061.16668981 -.01513918  00000+0 -81285-2 0  9991
2 67873  53.1504 248.8571 0001048  62.3289 156.7407 15.82329943  2658
